{"type": "FeatureCollection", "features": [ {"type": "Feature", "properties": {"norad_id": 30173, "name": "FENGYUN 1C DEB", "group": "fengyun-1c-debris", "lat": 21.59100375713336, "lon": 56.03506359649357, "alt_km": 863.3799654959175, "timestamp": "2025-12-14T20:40:32.046111+00:00", "meta": {"OBJECT_NAME": "FENGYUN 1C DEB", "OBJECT_ID": "1999-025UE", "EPOCH": "2025-12-14T03:49:04.499040", "MEAN_MOTION": 14.11395151, "ECCENTRICITY": 0.00805602, "INCLINATION": 98.9778, "RA_OF_ASC_NODE": 58.9196, "ARG_OF_PERICENTER": 284.5507, "MEAN_ANOMALY": 129.5669, "EPHEMERIS_TYPE": 0, "CLASSIFICATION_TYPE": "U", "NORAD_CAT_ID": 30173, "ELEMENT_SET_NO": 999, "REV_AT_EPOCH": 96569, "BSTAR": 0.0018056154, "MEAN_MOTION_DOT": 3.325e-05, "MEAN_MOTION_DDOT": 0}, "tle": {"line1": "1 30173U 99025UE  25348.15907985  .00003325  00000+0  18056-2 0  9999", "line2": "2 30173  98.9778  58.9196 0080560 284.5507 129.5669 14.11395151965696"}}, "geometry": {"type": "Point", "coordinates": [56.03506359649357, 21.59100375713336]}}, {"type": "Feature", "properties": {"norad_id": 30174, "name": "FENGYUN 1C DEB", "group": "fengyun-1c-debris", "lat": -23.603811610987027, "lon": -45.977836084303924, "alt_km": 643.3333769519941, "timestamp": "2025-12-14T20:40:32.046121+00:00", "meta": {"OBJECT_NAME": "FENGYUN 1C DEB", "OBJECT_ID": "1999-025UF", "EPOCH": "2025-12-14T08:41:14.361792", "MEAN_MOTION": 14.81188196, "ECCENTRICITY": 0.00182971, "INCLINATION": 98.7753, "RA_OF_ASC_NODE": 137.3461, "ARG_OF_PERICENTER": 40.3824, "MEAN_ANOMALY": 21.3753, "EPHEMERIS_TYPE": 0, "CLASSIFICATION_TYPE": "U", "NORAD_CAT_ID": 30174, "ELEMENT_SET_NO": 999, "REV_AT_EPOCH": 98392, "BSTAR": 0.0044669414, "MEAN_MOTION_DOT": 0.00034966, "MEAN_MOTION_DDOT": 0}, "tle": {"line1": "1 30174U 99025UF  25348.36197178  .00034966  00000+0  44669-2 0  9992", "line2": "2 30174  98.7753 137.3461 0018297  40.3824  21.3753 14.81188196983928"}}, "geometry": {"type": "Point", "coordinates": [-45.977836084303924, -23.603811610987027]}}, {"type": "Feature", "properties": {"norad_id": 30175, "name": "FENGYUN 1C DEB", "group": "fengyun-1c-debris", "lat": -75.13073241532045, "lon": -173.5799142502134, "alt_km": 889.5671465784944, "timestamp": "2025-12-14T20:40:32.046131+00:00", "meta": {"OBJECT_NAME": "FENGYUN 1C DEB", "OBJECT_ID": "1999-025UG", "EPOCH": "2025-12-14T02:23:46.747104", "MEAN_MOTION": 13.83868548, "ECCENTRICITY": 0.01463356, "INCLINATION": 99.3809, "RA_OF_ASC_NODE": 44.1676, "ARG_OF_PERICENTER": 209.0381, "MEAN_ANOMALY": 215.6622, "EPHEMERIS_TYPE": 0, "CLASSIFICATION_TYPE": "U", "NORAD_CAT_ID": 30175, "ELEMENT_SET_NO": 999, "REV_AT_EPOCH": 95359, "BSTAR": 0.00050165315, "MEAN_MOTION_DOT": 5.59e-06, "MEAN_MOTION_DDOT": 0}, "tle": {"line1": "1 30175U 99025UG  25348.09984661  .00000559  00000+0  50165-3 0  9994", "line2": "2 30175  99.3809  44.1676 0146335 209.0381 215.6622 13.83868548953598"}}, "geometry": {"type": "Point", "coordinates": [-173.5799142502134, -75.13073241532045]}}, {"type": "Feature", "properties": {"norad_id": 30177, "name": "FENGYUN 1C DEB", "group": "fengyun-1c-debris", "lat": -78.53839410691306, "lon": 63.795956551636664, "alt_km": 1236.9072570765975, "timestamp": "2025-12-14T20:40:32.046141+00:00", "meta": {"OBJECT_NAME": "FENGYUN 1C DEB", "OBJECT_ID": "1999-025UJ", "EPOCH": "2025-12-14T07:48:50.984640", "MEAN_MOTION": 13.62816331, "ECCENTRICITY": 0.04516836, "INCLINATION": 98.6266, "RA_OF_ASC_NODE": 291.7974, "ARG_OF_PERICENTER": 134.1944, "MEAN_ANOMALY": 16.3961, "EPHEMERIS_TYPE": 0, "CLASSIFICATION_TYPE": "U", "NORAD_CAT_ID": 30177, "ELEMENT_SET_NO": 999, "REV_AT_EPOCH": 93484, "BSTAR": 0.00090729892, "MEAN_MOTION_DOT": 1.378e-05, "MEAN_MOTION_DDOT": 0}, "tle": {"line1": "1 30177U 99025UJ  25348.32559010  .00001378  00000+0  90730-3 0  9990", "line2": "2 30177  98.6266 291.7974 0451683 134.1944  16.3961 13.62816331934847"}}, "geometry": {"type": "Point", "coordinates": [63.795956551636664, -78.53839410691306]}}, {"type": "Feature", "properties": {"norad_id": 30178, "name": "FENGYUN 1C DEB", "group": "fengyun-1c-debris", "lat": 61.265023188053306, "lon": 66.17875011044909, "alt_km": 827.2395421530418, "timestamp": "2025-12-14T20:40:32.046151+00:00", "meta": {"OBJECT_NAME": "FENGYUN 1C DEB", "OBJECT_ID": "1999-025UK", "EPOCH": "2025-12-14T03:13:26.685696", "MEAN_MOTION": 13.58690713, "ECCENTRICITY": 0.02805824, "INCLINATION": 102.2602, "RA_OF_ASC_NODE": 221.9071, "ARG_OF_PERICENTER": 123.9222, "MEAN_ANOMALY": 37.5329, "EPHEMERIS_TYPE": 0, "CLASSIFICATION_TYPE": "U", "NORAD_CAT_ID": 30178, "ELEMENT_SET_NO": 999, "REV_AT_EPOCH": 93190, "BSTAR": 0.0019283398, "MEAN_MOTION_DOT": 1.761e-05, "MEAN_MOTION_DDOT": 0}, "tle": {"line1": "1 30178U 99025UK  25348.13433664  .00001761  00000+0  19283-2 0  9995", "line2": "2 30178 102.2602 221.9071 0280582 123.9222  37.5329 13.58690713931906"}}, "geometry": {"type": "Point", "coordinates": [66.17875011044909, 61.265023188053306]}}, {"type": "Feature", "properties": {"norad_id": 30181, "name": "FENGYUN 1C DEB", "group": "fengyun-1c-debris", "lat": -79.67059269107503, "lon": -166.56858570459534, "alt_km": 800.8252192236123, "timestamp": "2025-12-14T20:40:32.046173+00:00", "meta": {"OBJECT_NAME": "FENGYUN 1C DEB", "OBJECT_ID": "1999-025UN", "EPOCH": "2025-12-14T04:37:01.339104", "MEAN_MOTION": 14.29260461, "ECCENTRICITY": 0.00400543, "INCLINATION": 98.8433, "RA_OF_ASC_NODE": 71.421, "ARG_OF_PERICENTER": 355.4638, "MEAN_ANOMALY": 68.8017, "EPHEMERIS_TYPE": 0, "CLASSIFICATION_TYPE": "U", "NORAD_CAT_ID": 30181, "ELEMENT_SET_NO": 999, "REV_AT_EPOCH": 97532, "BSTAR": 0.0017368973, "MEAN_MOTION_DOT": 4.411e-05, "MEAN_MOTION_DDOT": 0}, "tle": {"line1": "1 30181U 99025UN  25348.19237661  .00004411  00000+0  17369-2 0  9992", "line2": "2 30181  98.8433  71.4210 0040054 355.4638  68.8017 14.29260461975323"}}, "geometry": {"type": "Point", "coordinates": [-166.56858570459534, -79.67059269107503]}}, {"type": "Feature", "properties": {"norad_id": 30182, "name": "FENGYUN 1C DEB", "group": "fengyun-1c-debris", "lat": -56.540176411126154, "lon": -154.1734630283431, "alt_km": 954.3558108893722, "timestamp": "2025-12-14T20:40:32.046185+00:00", "meta": {"OBJECT_NAME": "FENGYUN 1C DEB", "OBJECT_ID": "1999-025UP", "EPOCH": "2025-12-14T02:36:00.723744", "MEAN_MOTION": 13.9645854, "ECCENTRICITY": 0.00750122, "INCLINATION": 99.0659, "RA_OF_ASC_NODE": 39.0653, "ARG_OF_PERICENTER": 18.9522, "MEAN_ANOMALY": 35.037, "EPHEMERIS_TYPE": 0, "CLASSIFICATION_TYPE": "U", "NORAD_CAT_ID": 30182, "ELEMENT_SET_NO": 999, "REV_AT_EPOCH": 96327, "BSTAR": 0.00013555204, "MEAN_MOTION_DOT": 1.48e-06, "MEAN_MOTION_DDOT": 0}, "tle": {"line1": "1 30182U 99025UP  25348.10834171  .00000148  00000+0  13555-3 0  9990", "line2": "2 30182  99.0659  39.0653 0075012  18.9522  35.0370 13.96458540963272"}}, "geometry": {"type": "Point", "coordinates": [-154.1734630283431, -56.540176411126154]}}, {"type": "Feature", "properties": {"norad_id": 30183, "name": "FENGYUN 1C DEB", "group": "fengyun-1c-debris", "lat": 15.680204313030119, "lon": -146.4510562249924, "alt_km": 848.6030790520344, "timestamp": "2025-12-14T20:40:32.046195+00:00", "meta": {"OBJECT_NAME": "FENGYUN 1C DEB", "OBJECT_ID": "1999-025UQ", "EPOCH": "2025-12-14T01:20:23.494272", "MEAN_MOTION": 14.12664903, "ECCENTRICITY": 0.00259803, "INCLINATION": 98.7887, "RA_OF_ASC_NODE": 30.2696, "ARG_OF_PERICENTER": 249.3745, "MEAN_ANOMALY": 139.9925, "EPHEMERIS_TYPE": 0, "CLASSIFICATION_TYPE": "U", "NORAD_CAT_ID": 30183, "ELEMENT_SET_NO": 999, "REV_AT_EPOCH": 97162, "BSTAR": 0.00070212291, "MEAN_MOTION_DOT": 1.262e-05, "MEAN_MOTION_DDOT": 0}, "tle": {"line1": "1 30183U 99025UQ  25348.05582748  .00001262  00000+0  70212-3 0  9996", "line2": "2 30183  98.7887  30.2696 0025980 249.3745 139.9925 14.12664903971627"}}, "geometry": {"type": "Point", "coordinates": [-146.4510562249924, 15.680204313030119]}}, {"type": "Feature", "properties": {"norad_id": 30191, "name": "FENGYUN 1C DEB", "group": "fengyun-1c-debris", "lat": -45.38757698531221, "lon": -128.77835207513056, "alt_km": 583.4869357989546, "timestamp": "2025-12-14T20:40:32.046205+00:00", "meta": {"OBJECT_NAME": "FENGYUN 1C DEB", "OBJECT_ID": "1999-025UY", "EPOCH": "2025-12-14T03:32:18.326976", "MEAN_MOTION": 14.78047564, "ECCENTRICITY": 0.00971115, "INCLINATION": 98.7758, "RA_OF_ASC_NODE": 59.4529, "ARG_OF_PERICENTER": 259.0253, "MEAN_ANOMALY": 130.3382, "EPHEMERIS_TYPE": 0, "CLASSIFICATION_TYPE": "U", "NORAD_CAT_ID": 30191, "ELEMENT_SET_NO": 999, "REV_AT_EPOCH": 296, "BSTAR": 0.0013798165, "MEAN_MOTION_DOT": 0.0001073, "MEAN_MOTION_DDOT": 0}, "tle": {"line1": "1 30191U 99025UY  25348.14743434  .00010730  00000+0  13798-2 0  9991", "line2": "2 30191  98.7758  59.4529 0097111 259.0253 130.3382 14.78047564  2962"}}, "geometry": {"type": "Point", "coordinates": [-128.77835207513056, -45.38757698531221]}}, {"type": "Feature", "properties": {"norad_id": 30193, "name": "FENGYUN 1C DEB", "group": "fengyun-1c-debris", "lat": 76.99981865473868, "lon": -144.72792547381627, "alt_km": 668.1249334673175, "timestamp": "2025-12-14T20:40:32.046215+00:00", "meta": {"OBJECT_NAME": "FENGYUN 1C DEB", "OBJECT_ID": "1999-025VA", "EPOCH": "2025-12-14T06:08:16.127808", "MEAN_MOTION": 14.49132017, "ECCENTRICITY": 0.0107285, "INCLINATION": 98.7561, "RA_OF_ASC_NODE": 256.524, "ARG_OF_PERICENTER": 128.5404, "MEAN_ANOMALY": 34.4744, "EPHEMERIS_TYPE": 0, "CLASSIFICATION_TYPE": "U", "NORAD_CAT_ID": 30193, "ELEMENT_SET_NO": 999, "REV_AT_EPOCH": 99188, "BSTAR": 0.00078225224, "MEAN_MOTION_DOT": 3.15e-05, "MEAN_MOTION_DDOT": 0}, "tle": {"line1": "1 30193U 99025VA  25348.25574222  .00003150  00000+0  78225-3 0  9997", "line2": "2 30193  98.7561 256.5240 0107285 128.5404  34.4744 14.49132017991888"}}, "geometry": {"type": "Point", "coordinates": [-144.72792547381627, 76.99981865473868]}}]}